NORAD_CAT_ID,OBJECT_NAME,OBJECT_TYPE,EPOCH,MEAN_MOTION,ECCENTRICITY,INCLINATION,RA_OF_ASC_NODE,ARG_OF_PERICENTER,MEAN_ANOMALY,BSTAR,MEAN_MOTION_DOT,MEAN_MOTION_DDOT,TLE_LINE0,TLE_LINE1,TLE_LINE2,SEMIMAJOR_AXIS,PERIOD,APOGEE,PERIGEE,DECAYED
49181.0,STARLINK-3059,PAYLOAD,2023-03-27 13:27:54,14.97702149,0.0003105,70.0013,132.807,273.0504,87.03,-0.0076274,-0.00088516,0.0,0 STARLINK-3059,1 49181U 21082BD  23086.56104507 -.00088516  00000-0 -76274-2 0  9991,2 49181  70.0013 132.8070 0003105 273.0504  87.0300 14.97702149 85653,6952.135,96.147,576.159,571.842,0.0
49181.0,STARLINK-3059,PAYLOAD,2023-03-27 19:52:34,14.97747908,0.0002305,70.0017,132.1346,276.6,83.4896,-0.0042673,-0.00049891,0.0,0 STARLINK-3059,1 49181U 21082BD  23086.82818032 -.00049891  00000-0 -42673-2 0  9994,2 49181  70.0017 132.1346 0002305 276.6000  83.4896 14.97747908 85693,6951.994,96.144,575.461,572.256,0.0
49181.0,STARLINK-3059,PAYLOAD,2023-03-28 05:29:23,14.98015524,0.0002806,70.0019,131.1257,213.7519,146.3461,0.001069,0.00012582,0.0,0 STARLINK-3059,1 49181U 21082BD  23087.22874826  .00012582  00000-0  10690-2 0  9991,2 49181  70.0019 131.1257 0002806 213.7519 146.3461 14.98015524 85755,6951.166,96.127,574.981,571.08,0.0
49181.0,STARLINK-3059,PAYLOAD,2023-03-28 13:30:13,14.98064979,0.0002788,70.0021,130.2852,274.5184,85.5657,0.0067141,0.00080391,0.0,0 STARLINK-3059,1 49181U 21082BD  23087.56265129  .00080391  00000-0  67141-2 0  9994,2 49181  70.0021 130.2852 0002788 274.5184  85.5657 14.98064979 85806,6951.013,96.124,574.816,570.94,0.0
49181.0,STARLINK-3059,PAYLOAD,2023-03-28 19:54:49,14.98085817,0.0002932,70.0015,129.6116,270.6658,89.4165,0.0073076,0.00087644,0.0,0 STARLINK-3059,1 49181U 21082BD  23087.82974494  .00087644  00000-0  73076-2 0  9997,2 49181  70.0015 129.6116 0002932 270.6658  89.4165 14.98085817 85843,6950.948,96.123,574.851,570.775,0.0
49181.0,STARLINK-3059,PAYLOAD,2023-03-29 11:56:12,14.98312775,0.0003036,70.0009,127.9264,274.205,85.8762,0.001965,0.00023421,0.0,0 STARLINK-3059,1 49181U 21082BD  23088.49736500  .00023421  00000-0  19650-2 0  9996,2 49181  70.0009 127.9264 0003036 274.2050  85.8762 14.98312775 85943,6950.246,96.108,574.221,570.001,0.0
49181.0,STARLINK-3059,PAYLOAD,2023-03-29 19:56:52,14.98333512,0.0003011,70.0008,127.0846,273.981,86.1005,0.0018751,0.00022354,0.0,0 STARLINK-3059,1 49181U 21082BD  23088.83116455  .00022354  00000-0  18751-2 0  9990,2 49181  70.0008 127.0846 0003011 273.9810  86.1005 14.98333512 86017,6950.182,96.107,574.14,569.954,0.0
49181.0,STARLINK-3059,PAYLOAD,2023-03-30 11:58:12,14.98353364,0.0003041,70.0007,125.4009,274.5275,85.5536,0.0016323,0.00019449,0.0,0 STARLINK-3059,1 49181U 21082BD  23089.49876086  .00019449  00000-0  16323-2 0  9990,2 49181  70.0007 125.4009 0003041 274.5275  85.5536 14.98353364 86091,6950.121,96.106,574.099,569.872,0.0
49181.0,STARLINK-3059,PAYLOAD,2023-03-30 19:58:52,14.983569,0.0003005,70.0008,124.5589,275.9045,84.1772,0.0013067,0.00015544,0.0,0 STARLINK-3059,1 49181U 21082BD  23089.83255703  .00015544  00000-0  13067-2 0  9999,2 49181  70.0008 124.5589 0003005 275.9045  84.1772 14.98356900 86169,6950.11,96.105,574.063,569.886,0.0
49181.0,STARLINK-3059,PAYLOAD,2023-03-31 02:23:24,14.98362403,0.000299,70.001,123.8859,276.1561,83.9258,0.0012248,0.00014564,0.0,0 STARLINK-3059,1 49181U 21082BD  23090.09959243  .00014564  00000-0  12248-2 0  9990,2 49181  70.0010 123.8859 0002990 276.1561  83.9258 14.98362403 86185,6950.093,96.105,574.036,569.88,0.0
49181.0,STARLINK-3059,PAYLOAD,2023-03-31 20:00:52,14.98353002,0.0002583,70.0031,122.0387,295.1118,64.9773,0.00033439,3.901e-05,0.0,0 STARLINK-3059,1 49181U 21082BD  23090.83394472  .00003901  00000-0  33439-3 0  9998,2 49181  70.0031 122.0387 0002583 295.1118  64.9773 14.98353002 86290,6950.122,96.106,573.782,570.192,0.0
49181.0,STARLINK-3059,PAYLOAD,2023-04-01 04:01:32,14.98345371,0.0002466,70.0035,121.1934,276.4921,83.5958,-4.007e-05,-5.71e-06,0.0,0 STARLINK-3059,1 49181U 21082BD  23091.16774243 -.00000571  00000-0 -40070-4 0  9995,2 49181  70.0035 121.1934 0002466 276.4921  83.5958 14.98345371 86344,6950.145,96.106,573.724,570.296,0.0
49181.0,STARLINK-3059,PAYLOAD,2023-04-01 12:02:13,14.98335498,0.000266,70.0014,120.3519,272.6649,87.4206,-6.4553e-05,-8.63e-06,0.0,0 STARLINK-3059,1 49181U 21082BD  23091.50154701 -.00000863  00000-0 -64553-4 0  9990,2 49181  70.0014 120.3519 0002660 272.6649  87.4206 14.98335498 86395,6950.176,96.107,573.89,570.192,0.0
49181.0,STARLINK-3059,PAYLOAD,2023-04-02 12:04:14,14.98340627,0.0002666,69.9997,117.8259,276.0893,83.9962,-6.8795e-05,-9.14e-06,0.0,0 STARLINK-3059,1 49181U 21082BD  23092.50294285 -.00000914  00000-0 -68795-4 0  9992,2 49181  69.9997 117.8259 0002666 276.0893  83.9962 14.98340627 86546,6950.16,96.106,573.878,570.172,0.0
49181.0,STARLINK-3059,PAYLOAD,2023-04-03 12:06:15,14.98331922,0.0002823,69.9992,115.3012,269.1866,90.8969,0.00012949,1.452e-05,0.0,0 STARLINK-3059,1 49181U 21082BD  23093.50434153  .00001452  00000-0  12949-3 0  9998,2 49181  69.9992 115.3012 0002823 269.1866  90.8969 14.98331922 86697,6950.187,96.107,574.014,570.09,0.0
49181.0,STARLINK-3059,PAYLOAD,2023-04-04 10:32:07,14.98332338,0.0002798,69.9992,112.9447,267.0399,93.044,6.3355e-05,6.63e-06,0.0,0 STARLINK-3059,1 49181U 21082BD  23094.43898131  .00000663  00000-0  63355-4 0  9992,2 49181  69.9992 112.9447 0002798 267.0399  93.0440 14.98332338 86850,6950.186,96.107,573.995,570.106,0.0
49181.0,STARLINK-3059,PAYLOAD,2023-04-05 05:45:44,14.98328813,0.0002907,69.9989,110.9239,268.1775,91.9051,1.5735e-05,9.5e-07,0.0,0 STARLINK-3059,1 49181U 21082BD  23095.24010369  .00000095  00000-0  15735-4 0  9999,2 49181  69.9989 110.9239 0002907 268.1775  91.9051 14.98328813 86954,6950.197,96.107,574.082,570.041,0.0
49181.0,STARLINK-3059,PAYLOAD,2023-04-05 10:34:09,14.98329782,0.0002952,69.9988,110.4192,269.8836,90.1985,1.5251e-05,8.9e-07,0.0,0 STARLINK-3059,1 49181U 21082BD  23095.44038294  .00000089  00000-0  15251-4 0  9994,2 49181  69.9988 110.4192 0002952 269.8836  90.1985 14.98329782 87002,6950.194,96.107,574.11,570.007,0.0
49181.0,STARLINK-3059,PAYLOAD,2023-04-06 09:00:01,14.98333646,0.0003036,69.9987,108.0628,270.8915,89.1896,7.4125e-05,7.92e-06,0.0,0 STARLINK-3059,1 49181U 21082BD  23096.37501793  .00000792  00000-0  74125-4 0  9992,2 49181  69.9987 108.0628 0003036 270.8915  89.1896 14.98333646 87128,6950.182,96.107,574.157,569.937,0.0
49181.0,STARLINK-3059,PAYLOAD,2023-04-06 12:12:17,14.98333296,0.0003031,69.9987,107.7261,270.9843,89.0968,9.5982e-05,1.052e-05,0.0,0 STARLINK-3059,1 49181U 21082BD  23096.50853750  .00001052  00000-0  95982-4 0  9994,2 49181  69.9987 107.7261 0003031 270.9843  89.0968 14.98333296 87167,6950.183,96.107,574.154,569.941,0.0
49181.0,STARLINK-3059,PAYLOAD,2023-04-06 18:36:49,14.98330966,0.0003065,69.9988,107.0523,270.9165,89.1642,8.4435e-05,9.15e-06,0.0,0 STARLINK-3059,1 49181U 21082BD  23096.77557870  .00000915  00000-0  84435-4 0  9995,2 49181  69.9988 107.0523 0003065 270.9165  89.1642 14.98330966 87202,6950.19,96.107,574.185,569.925,0.0
49181.0,STARLINK-3059,PAYLOAD,2023-04-07 10:38:10,14.98332772,0.0003054,69.9989,105.3691,270.7541,89.3268,9.0171e-05,9.83e-06,0.0,0 STARLINK-3059,1 49181U 21082BD  23097.44317721  .00000983  00000-0  90171-4 0  9998,2 49181  69.9989 105.3691 0003054 270.7541  89.3268 14.98332772 87285,6950.184,96.107,574.172,569.927,0.0
49181.0,STARLINK-3059,PAYLOAD,2023-04-08 10:40:11,14.98329137,0.0002918,69.9993,102.8444,273.159,86.9235,-3.3332e-06,-1.33e-06,0.0,0 STARLINK-3059,1 49181U 21082BD  23098.44458165 -.00000133  00000-0 -33332-5 0  9993,2 49181  69.9993 102.8444 0002918 273.1590  86.9235 14.98329137 87432,6950.196,96.107,574.089,570.032,0.0
49181.0,STARLINK-3059,PAYLOAD,2023-04-09 09:06:04,14.98332282,0.0002981,69.9991,100.4876,270.5064,89.5753,4.133e-05,4e-06,0.0,0 STARLINK-3059,1 49181U 21082BD  23099.37921745  .00000400  00000-0  41330-4 0  9996,2 49181  69.9991 100.4876 0002981 270.5064  89.5753 14.98332282 87596,6950.186,96.107,574.123,569.979,0.0
49181.0,STARLINK-3059,PAYLOAD,2023-04-09 17:06:44,14.98331653,0.0002989,69.9992,99.6459,270.5501,89.5316,5.8808e-05,6.09e-06,0.0,0 STARLINK-3059,1 49181U 21082BD  23099.71301709  .00000609  00000-0  58808-4 0  9995,2 49181  69.9992  99.6459 0002989 270.5501  89.5316 14.98331653 87649,6950.188,96.107,574.13,569.975,0.0
49181.0,STARLINK-3059,PAYLOAD,2023-04-09 23:31:16,14.98331304,0.0003037,69.9989,98.9726,270.6446,89.4365,8.594e-05,9.33e-06,0.0,0 STARLINK-3059,1 49181U 21082BD  23099.98005664  .00000933  00000-0  85940-4 0  9992,2 49181  69.9989  98.9726 0003037 270.6446  89.4365 14.98331304 87666,6950.189,96.107,574.165,569.943,0.0
49181.0,STARLINK-3059,PAYLOAD,2023-04-10 07:31:57,14.98332419,0.0003033,69.999,98.131,270.563,89.5181,9.3417e-05,1.022e-05,0.0,0 STARLINK-3059,1 49181U 21082BD  23100.31385580  .00001022  00000-0  93417-4 0  9998,2 49181  69.9990  98.1310 0003033 270.5630  89.5181 14.98332419 87732,6950.185,96.107,574.158,569.942,0.0
49181.0,STARLINK-3059,PAYLOAD,2023-04-11 04:21:42,14.98330919,0.00031,69.9991,95.9427,269.75,90.3304,5.2147e-05,5.29e-06,0.0,0 STARLINK-3059,1 49181U 21082BD  23101.18173656  .00000529  00000-0  52147-4 0  9999,2 49181  69.9991  95.9427 0003100 269.7500  90.3304 14.98330919 87840,6950.19,96.107,574.21,569.9,0.0
49181.0,STARLINK-3059,PAYLOAD,2023-04-11 09:10:06,14.98332134,0.0002993,69.9992,95.4378,270.2371,89.8445,3.5665e-05,3.33e-06,0.0,0 STARLINK-3059,1 49181U 21082BD  23101.38201612  .00000333  00000-0  35665-4 0  9994,2 49181  69.9992  95.4378 0002993 270.2371  89.8445 14.98332134 87898,6950.186,96.107,574.131,569.971,0.0
49181.0,STARLINK-3059,PAYLOAD,2023-04-11 17:10:46,14.98330714,0.0003001,69.9993,94.5961,270.4844,89.5971,1.9145e-05,1.35e-06,0.0,0 STARLINK-3059,1 49181U 21082BD  23101.71581715  .00000135  00000-0  19145-4 0  9991,2 49181  69.9993  94.5961 0003001 270.4844  89.5971 14.98330714 87944,6950.191,96.107,574.141,569.97,0.0
